[{"OBJECT_NAME":"O3B FM17","OBJECT_ID":"2019-020C","EPOCH":"2026-04-25T08:21:22.281120","MEAN_MOTION":5.00115482,"ECCENTRICITY":0.0002609,"INCLINATION":0.0342,"RA_OF_ASC_NODE":354.8678,"ARG_OF_PERICENTER":36.6567,"MEAN_ANOMALY":328.4893,"EPHEMERIS_TYPE":0,"CLASSIFICATION_TYPE":"U","NORAD_CAT_ID":44114,"ELEMENT_SET_NO":999,"REV_AT_EPOCH":12888,"BSTAR":0,"MEAN_MOTION_DOT":-2.7e-7,"MEAN_MOTION_DDOT":0},{"OBJECT_NAME":"O3B FM18","OBJECT_ID":"2019-020D","EPOCH":"2026-04-25T16:39:44.731872","MEAN_MOTION":5.00115236,"ECCENTRICITY":0.0002734,"INCLINATION":0.0537,"RA_OF_ASC_NODE":1.515,"ARG_OF_PERICENTER":34.2778,"MEAN_ANOMALY":324.2238,"EPHEMERIS_TYPE":0,"CLASSIFICATION_TYPE":"U","NORAD_CAT_ID":44115,"ELEMENT_SET_NO":999,"REV_AT_EPOCH":12902,"BSTAR":0,"MEAN_MOTION_DOT":-2.7e-7,"MEAN_MOTION_DDOT":0},{"OBJECT_NAME":"SES-17","OBJECT_ID":"2021-095A","EPOCH":"2026-04-25T20:49:38.771040","MEAN_MOTION":1.00269294,"ECCENTRICITY":9.61e-5,"INCLINATION":0.0254,"RA_OF_ASC_NODE":54.6172,"ARG_OF_PERICENTER":331.9736,"MEAN_ANOMALY":72.5925,"EPHEMERIS_TYPE":0,"CLASSIFICATION_TYPE":"U","NORAD_CAT_ID":49332,"ELEMENT_SET_NO":999,"REV_AT_EPOCH":1733,"BSTAR":0,"MEAN_MOTION_DOT":-2.86e-6,"MEAN_MOTION_DDOT":0},{"OBJECT_NAME":"SES-22","OBJECT_ID":"2022-071A","EPOCH":"2026-04-25T15:17:38.591808","MEAN_MOTION":1.00273258,"ECCENTRICITY":9.25e-5,"INCLINATION":0.0059,"RA_OF_ASC_NODE":58.7892,"ARG_OF_PERICENTER":330.742,"MEAN_ANOMALY":274.5158,"EPHEMERIS_TYPE":0,"CLASSIFICATION_TYPE":"U","NORAD_CAT_ID":52933,"ELEMENT_SET_NO":999,"REV_AT_EPOCH":699,"BSTAR":0,"MEAN_MOTION_DOT":9.0e-7,"MEAN_MOTION_DDOT":0},{"OBJECT_NAME":"SES-20","OBJECT_ID":"2022-123A","EPOCH":"2026-04-25T14:25:04.277280","MEAN_MOTION":1.00268405,"ECCENTRICITY":0.0001729,"INCLINATION":0.0229,"RA_OF_ASC_NODE":102.8821,"ARG_OF_PERICENTER":328.3348,"MEAN_ANOMALY":255.575,"EPHEMERIS_TYPE":0,"CLASSIFICATION_TYPE":"U","NORAD_CAT_ID":53960,"ELEMENT_SET_NO":999,"REV_AT_EPOCH":1300,"BSTAR":0,"MEAN_MOTION_DOT":0,"MEAN_MOTION_DDOT":0},{"OBJECT_NAME":"SES-21","OBJECT_ID":"2022-123B","EPOCH":"2026-04-24T23:17:51.345888","MEAN_MOTION":1.002723,"ECCENTRICITY":0.00013171,"INCLINATION":0.0251,"RA_OF_ASC_NODE":64.6447,"ARG_OF_PERICENTER":318.316,"MEAN_ANOMALY":48.525,"EPHEMERIS_TYPE":0,"CLASSIFICATION_TYPE":"U","NORAD_CAT_ID":53961,"ELEMENT_SET_NO":999,"REV_AT_EPOCH":667,"BSTAR":0,"MEAN_MOTION_DOT":5.5e-7,"MEAN_MOTION_DDOT":0},{"OBJECT_NAME":"O3B MPOWER F1","OBJECT_ID":"2022-174A","EPOCH":"2026-04-25T06:06:04.690080","MEAN_MOTION":5.00114812,"ECCENTRICITY":0.0005959,"INCLINATION":0.0599,"RA_OF_ASC_NODE":347.4408,"ARG_OF_PERICENTER":65.5188,"MEAN_ANOMALY":94.3026,"EPHEMERIS_TYPE":0,"CLASSIFICATION_TYPE":"U","NORAD_CAT_ID":54755,"ELEMENT_SET_NO":999,"REV_AT_EPOCH":6271,"BSTAR":0,"MEAN_MOTION_DOT":-2.7e-7,"MEAN_MOTION_DDOT":0},{"OBJECT_NAME":"O3B MPOWER F2","OBJECT_ID":"2022-174B","EPOCH":"2026-04-25T08:08:08.495808","MEAN_MOTION":5.00115351,"ECCENTRICITY":0.0005938,"INCLINATION":0.0564,"RA_OF_ASC_NODE":345.064,"ARG_OF_PERICENTER":47.3347,"MEAN_ANOMALY":327.6359,"EPHEMERIS_TYPE":0,"CLASSIFICATION_TYPE":"U","NORAD_CAT_ID":54756,"ELEMENT_SET_NO":999,"REV_AT_EPOCH":6279,"BSTAR":0,"MEAN_MOTION_DOT":-2.7e-7,"MEAN_MOTION_DDOT":0},{"OBJECT_NAME":"SES-18","OBJECT_ID":"2023-038A","EPOCH":"2026-04-25T14:25:04.276416","MEAN_MOTION":1.00271301,"ECCENTRICITY":0.0001496,"INCLINATION":0.0187,"RA_OF_ASC_NODE":258.1103,"ARG_OF_PERICENTER":71.2169,"MEAN_ANOMALY":357.4473,"EPHEMERIS_TYPE":0,"CLASSIFICATION_TYPE":"U","NORAD_CAT_ID":55970,"ELEMENT_SET_NO":999,"REV_AT_EPOCH":1157,"BSTAR":0,"MEAN_MOTION_DOT":-1.15e-6,"MEAN_MOTION_DDOT":0},{"OBJECT_NAME":"SES-19","OBJECT_ID":"2023-038B","EPOCH":"2026-04-25T16:23:30.608160","MEAN_MOTION":1.00273486,"ECCENTRICITY":0.0001684,"INCLINATION":0.0246,"RA_OF_ASC_NODE":283.8124,"ARG_OF_PERICENTER":104.3069,"MEAN_ANOMALY":296.5575,"EPHEMERIS_TYPE":0,"CLASSIFICATION_TYPE":"U","NORAD_CAT_ID":55971,"ELEMENT_SET_NO":999,"REV_AT_EPOCH":1156,"BSTAR":0,"MEAN_MOTION_DOT":7.4e-7,"MEAN_MOTION_DDOT":0},{"OBJECT_NAME":"O3B MPOWER F4","OBJECT_ID":"2023-059A","EPOCH":"2026-04-25T19:16:26.506848","MEAN_MOTION":5.00115881,"ECCENTRICITY":0.0007251,"INCLINATION":0.0649,"RA_OF_ASC_NODE":2.6449,"ARG_OF_PERICENTER":44.1224,"MEAN_ANOMALY":313.2915,"EPHEMERIS_TYPE":0,"CLASSIFICATION_TYPE":"U","NORAD_CAT_ID":56367,"ELEMENT_SET_NO":999,"REV_AT_EPOCH":5597,"BSTAR":0,"MEAN_MOTION_DOT":-2.7e-7,"MEAN_MOTION_DDOT":0},{"OBJECT_NAME":"O3B MPOWER F3","OBJECT_ID":"2023-059B","EPOCH":"2026-04-25T15:16:30.601920","MEAN_MOTION":5.00116604,"ECCENTRICITY":0.0006648,"INCLINATION":0.066,"RA_OF_ASC_NODE":2.4125,"ARG_OF_PERICENTER":34.4896,"MEAN_ANOMALY":323.1418,"EPHEMERIS_TYPE":0,"CLASSIFICATION_TYPE":"U","NORAD_CAT_ID":56368,"ELEMENT_SET_NO":999,"REV_AT_EPOCH":5210,"BSTAR":0,"MEAN_MOTION_DOT":-2.7e-7,"MEAN_MOTION_DDOT":0},{"OBJECT_NAME":"O3B MPOWER F5","OBJECT_ID":"2023-175A","EPOCH":"2026-04-25T12:53:42.357120","MEAN_MOTION":5.00115572,"ECCENTRICITY":0.0004467,"INCLINATION":0.0447,"RA_OF_ASC_NODE":11.798,"ARG_OF_PERICENTER":34.8717,"MEAN_ANOMALY":313.3658,"EPHEMERIS_TYPE":0,"CLASSIFICATION_TYPE":"U","NORAD_CAT_ID":58346,"ELEMENT_SET_NO":999,"REV_AT_EPOCH":4680,"BSTAR":0,"MEAN_MOTION_DOT":-2.7e-7,"MEAN_MOTION_DDOT":0},{"OBJECT_NAME":"O3B MPOWER F6","OBJECT_ID":"2023-175B","EPOCH":"2026-04-25T15:18:40.080096","MEAN_MOTION":5.00116236,"ECCENTRICITY":0.0004729,"INCLINATION":0.0513,"RA_OF_ASC_NODE":6.1344,"ARG_OF_PERICENTER":18.8356,"MEAN_ANOMALY":335.0511,"EPHEMERIS_TYPE":0,"CLASSIFICATION_TYPE":"U","NORAD_CAT_ID":58347,"ELEMENT_SET_NO":999,"REV_AT_EPOCH":4572,"BSTAR":0,"MEAN_MOTION_DOT":-2.7e-7,"MEAN_MOTION_DDOT":0},{"OBJECT_NAME":"ASTRA 1P (SES-24)","OBJECT_ID":"2024-115A","EPOCH":"2026-04-24T06:53:54.671712","MEAN_MOTION":1.00262578,"ECCENTRICITY":0.00037434,"INCLINATION":0.0784,"RA_OF_ASC_NODE":43.1438,"ARG_OF_PERICENTER":261.415,"MEAN_ANOMALY":30.4242,"EPHEMERIS_TYPE":0,"CLASSIFICATION_TYPE":"U","NORAD_CAT_ID":60086,"ELEMENT_SET_NO":999,"REV_AT_EPOCH":665,"BSTAR":0,"MEAN_MOTION_DOT":1.05e-6,"MEAN_MOTION_DDOT":0},{"OBJECT_NAME":"O3B MPOWER F7","OBJECT_ID":"2024-244A","EPOCH":"2026-04-25T07:18:25.229088","MEAN_MOTION":5.00115126,"ECCENTRICITY":0.0006087,"INCLINATION":0.0718,"RA_OF_ASC_NODE":358.2562,"ARG_OF_PERICENTER":33.1017,"MEAN_ANOMALY":328.6766,"EPHEMERIS_TYPE":0,"CLASSIFICATION_TYPE":"U","NORAD_CAT_ID":62362,"ELEMENT_SET_NO":999,"REV_AT_EPOCH":2388,"BSTAR":0,"MEAN_MOTION_DOT":-2.7e-7,"MEAN_MOTION_DDOT":0},{"OBJECT_NAME":"O3B MPOWER F8","OBJECT_ID":"2024-244B","EPOCH":"2026-04-25T06:30:49.150080","MEAN_MOTION":5.00115404,"ECCENTRICITY":0.00063,"INCLINATION":0.0333,"RA_OF_ASC_NODE":314.8208,"ARG_OF_PERICENTER":70.293,"MEAN_ANOMALY":334.9151,"EPHEMERIS_TYPE":0,"CLASSIFICATION_TYPE":"U","NORAD_CAT_ID":62363,"ELEMENT_SET_NO":999,"REV_AT_EPOCH":1821,"BSTAR":0,"MEAN_MOTION_DOT":-2.7e-7,"MEAN_MOTION_DDOT":0}]
