O3B FM17                
1 44114U 19020C   26115.34817455 -.00000027  00000+0  00000+0 0  9996
2 44114   0.0342 354.8678 0002609  36.6567 328.4893  5.00115482128886
O3B FM18                
1 44115U 19020D   26115.69426773 -.00000027  00000+0  00000+0 0  9994
2 44115   0.0537   1.5150 0002734  34.2778 324.2238  5.00115236129022
SES-17                  
1 49332U 21095A   26115.86780985 -.00000286  00000+0  00000+0 0  9999
2 49332   0.0254  54.6172 0000961 331.9736  72.5925  1.00269294 17334
SES-22                  
1 52933U 22071A   26115.63725222  .00000090  00000+0  00000+0 0  9995
2 52933   0.0059  58.7892 0000925 330.7420 274.5158  1.00273258  6996
SES-20                  
1 53960U 22123A   26115.60074395  .00000000  00000+0  00000+0 0  9990
2 53960   0.0229 102.8821 0001729 328.3348 255.5750  1.00268405 13009
SES-21                  
1 53961U 22123B   26114.97073317  .00000055  00000+0  00000+0 0  9993
2 53961   0.0251  64.6447 0001317 318.3160  48.5250  1.00272300  6677
O3B MPOWER F1           
1 54755U 22174A   26115.25422095 -.00000027  00000+0  00000+0 0  9994
2 54755   0.0599 347.4408 0005959  65.5188  94.3026  5.00114812 62714
O3B MPOWER F2           
1 54756U 22174B   26115.33898722 -.00000027  00000+0  00000+0 0  9998
2 54756   0.0564 345.0640 0005938  47.3347 327.6359  5.00115351 62799
SES-18                  
1 55970U 23038A   26115.60074394 -.00000115  00000+0  00000+0 0  9996
2 55970   0.0187 258.1103 0001496  71.2169 357.4473  1.00271301 11572
SES-19                  
1 55971U 23038B   26115.68299315  .00000074  00000+0  00000+0 0  9990
2 55971   0.0246 283.8124 0001684 104.3069 296.5575  1.00273486 11564
O3B MPOWER F4           
1 56367U 23059A   26115.80308457 -.00000027  00000+0  00000+0 0  9994
2 56367   0.0649   2.6449 0007251  44.1224 313.2915  5.00115881 55974
O3B MPOWER F3           
1 56368U 23059B   26115.63646530 -.00000027  00000+0  00000+0 0  9993
2 56368   0.0660   2.4125 0006648  34.4896 323.1418  5.00116604 52107
O3B MPOWER F5           
1 58346U 23175A   26115.53729580 -.00000027  00000+0  00000+0 0  9996
2 58346   0.0447  11.7980 0004467  34.8717 313.3658  5.00115572 46803
O3B MPOWER F6           
1 58347U 23175B   26115.63796389 -.00000027  00000+0  00000+0 0  9999
2 58347   0.0513   6.1344 0004729  18.8356 335.0511  5.00116236 45729
ASTRA 1P (SES-24)       
1 60086U 24115A   26114.28743833  .00000105  00000+0  00000+0 0  9999
2 60086   0.0784  43.1438 0003743 261.4150  30.4242  1.00262578  6653
O3B MPOWER F7           
1 62362U 24244A   26115.30445867 -.00000027  00000+0  00000+0 0  9995
2 62362   0.0718 358.2562 0006087  33.1017 328.6766  5.00115126 23884
O3B MPOWER F8           
1 62363U 24244B   26115.27140220 -.00000027  00000+0  00000+0 0  9997
2 62363   0.0333 314.8208 0006300  70.2930 334.9151  5.00115404 18215
